OBJECT_NAME,OBJECT_ID,EPOCH,MEAN_MOTION,ECCENTRICITY,INCLINATION,RA_OF_ASC_NODE,ARG_OF_PERICENTER,MEAN_ANOMALY,EPHEMERIS_TYPE,CLASSIFICATION_TYPE,NORAD_CAT_ID,ELEMENT_SET_NO,REV_AT_EPOCH,BSTAR,MEAN_MOTION_DOT,MEAN_MOTION_DDOT
LEMUR-2-ALISIA,2025-009DB,2026-06-07T11:31:39.552096,15.02631608,.0000843,97.6966,240.7164,190.3956,169.7251,0,U,62706,999,9870,.6583E-3,.8716E-4,0
LEMUR-2-ROUNDTRIPPER,2025-009DG,2026-06-07T12:16:30.857664,15.03628563,.0004389,97.7236,241.2054,162.9166,197.2208,0,U,62711,999,7617,.74395E-3,.10126E-3,0
LEMUR-2-MYNAMEISJEFF,2025-009DH,2026-06-07T17:01:48.681408,15.03648646,.0002607,97.7287,241.7782,190.0193,170.0981,0,U,62712,999,7620,.73506E-3,.10009E-3,0
LEMUR-2-LEIA-PHILIP,2025-052AN,2026-06-07T15:31:34.616352,14.97290101,.0002073,97.6846,50.7579,252.7944,107.3051,0,U,63246,999,6724,.21522E-3,.2437E-4,0
LEMUR-2-LIA-MARTIN,2025-052AQ,2026-06-07T15:43:04.965312,14.97724962,.0002277,97.6906,51.2261,174.2204,185.9045,0,U,63248,999,6725,.55209E-3,.6417E-4,0
LEMUR-2-DELOITTE-1,2025-052BB,2026-06-07T16:43:27.560928,14.97532629,.0002375,97.6919,51.5968,115.6925,244.4543,0,U,63259,999,6727,.40395E-3,.4656E-4,0
LEMUR-2-EMERSONROSE,2025-052BD,2026-06-07T16:21:12.267936,14.99018212,.0002485,97.6905,52.1224,73.6219,286.5277,0,U,63261,999,6731,.34538E-3,.4129E-4,0
LEMUR-2-MARACHE-FRAN,2025-052BE,2026-06-07T15:54:51.011424,15.00001972,.000623,97.6945,52.3995,53.6661,306.5137,0,U,63262,999,6733,.57581E-3,.7107E-4,0
LEMUR-2-THEFALCONER,2025-052BG,2026-06-07T10:54:38.641824,14.97324847,.0003592,97.6876,50.9885,61.6588,298.4996,0,U,63264,999,6723,.45412E-3,.5213E-4,0
LEMUR-2-UNTITLED-SC,2025-061A,2026-06-07T10:27:24.529248,15.13404919,.0017167,97.5633,133.8693,301.8670,58.0889,0,U,63351,999,6611,.21774E-3,.3834E-4,0
LEMUR-2-ESPERANZA,2025-061B,2026-06-07T17:51:22.336128,15.13501942,.0016812,97.5640,134.2667,300.1088,59.8476,0,U,63352,999,6616,.26488E-3,.4691E-4,0
LEMUR-2-KREMPEL-BRO2,2025-061C,2026-06-07T10:38:14.443872,15.13933151,.0017542,97.5687,134.4888,292.8075,67.1303,0,U,63353,999,6613,.22512E-3,.4026E-4,0
LEMUR-2-THERMORAPTOR,2025-061D,2026-06-07T11:48:19.237248,15.14011469,.0017308,97.5692,134.6110,291.4891,68.4494,0,U,63354,999,6614,.26729E-3,.4804E-4,0
LEMUR-2-NEUROSPICY,2025-061E,2026-06-07T15:54:04.896288,15.14128516,.0015096,97.5620,134.4144,295.2778,64.6889,0,U,63355,999,6617,.25621E-3,.4613E-4,0
LEMUR-2-TILLINFINITY,2025-061F,2026-06-07T10:29:38.749056,15.14712323,.0016224,97.5604,134.4742,282.6696,77.2722,0,U,63356,999,6616,.22942E-3,.4194E-4,0
LEMUR-2-KREMPEL-BRO1,2025-061G,2026-06-07T17:45:20.593152,15.14521277,.0016922,97.5606,134.6938,282.8124,77.1217,0,U,63357,999,6620,.26969E-3,.4917E-4,0
LEMUR-2-LANGER2SPACE,2025-061H,2026-06-07T10:24:59.944032,15.14214309,.0014997,97.5611,134.2076,294.2124,65.7540,0,U,63358,999,6614,.22771E-3,.4102E-4,0
LEMUR-2-BALTO,2025-052BH,2026-06-07T15:32:37.514688,14.99983991,.0006593,97.6878,52.3697,81.7728,278.4243,0,U,63395,999,6733,.53283E-3,.6569E-4,0
LEMUR-2-KRISH,2025-135AK,2026-06-07T13:51:36.946080,14.96116165,.0001161,97.7725,273.5222,106.0642,254.0707,0,U,64561,999,5248,.50372E-3,.561E-4,0
LEMUR-2-HUBBLE-4,2025-135AP,2026-06-07T06:51:11.850912,14.93171074,.000172,97.7689,272.3127,1.3020,358.8203,0,U,64565,999,5239,.17408E-3,.1761E-4,0
LEMUR-2-SEJONG-2,2025-135BL,2026-06-07T19:28:14.469312,14.96628300,.0004607,97.7684,273.8979,20.7937,339.3471,0,U,64586,999,5254,.51224E-3,.5783E-4,0
LEMUR-2-HUBBLE-5,2025-135BT,2026-06-07T13:56:11.773248,14.94106239,.000587,97.7709,273.2221,25.4481,334.7027,0,U,64840,999,5247,.17671E-3,.1832E-4,0
LEMUR-2-KARENDARRELL,2025-135BU,2026-06-07T13:54:00.417600,14.99972950,.0009087,97.7671,274.8054,239.5547,120.4778,0,U,64841,999,5257,.67418E-3,.833E-4,0
LEMUR-2-LUCILLE-ROSE,2025-135BV,2026-06-07T06:52:25.603680,15.00027212,.001064,97.7771,274.5201,321.5198,38.5265,0,U,65403,999,4715,.61936E-3,.766E-4,0
LEMUR-2-AFFIE-WAUWIE,2025-248C,2026-06-07T07:23:30.971040,15.26866519,.0008835,45.3866,168.5000,20.2835,339.8404,0,U,66295,999,3308,.52119E-3,.13749E-3,0
LEMUR-2-DEANANDMAEVE,2025-276N,2026-06-07T16:49:47.136000,15.19616015,.000657,97.4207,232.3352,44.9055,315.2711,0,U,66678,999,2897,.34409E-3,.7267E-4,0
LEMUR-2-STAS-GORBUK,2025-276W,2026-06-07T17:07:34.893120,15.19281205,.0006052,97.4242,232.4031,45.2008,314.9717,0,U,66686,999,2897,.30223E-3,.6312E-4,0
LEMUR-2-TEODOR,2025-276DG,2026-06-07T16:59:09.826368,15.20948044,.000182,97.4147,232.6217,123.6417,236.4992,0,U,66768,999,2900,.2981E-3,.6533E-4,0
LEMUR-2-LAILA,2025-276DQ,2026-06-07T16:23:34.884096,15.21168405,.0001565,97.4171,232.7120,147.3804,212.7529,0,U,66776,999,2900,.32401E-3,.7153E-4,0
LEMUR-2-CELIJO-SB-PK,2025-276DW,2026-06-07T16:43:30.789696,14.99861360,.0008825,97.5277,229.7849,155.1599,205.0052,0,U,66781,999,2120,.57038E-3,.7019E-4,0
