LEMUR-2-ALISIA          
1 62706U 25009DB  26158.48031889  .00008716  00000+0  65830-3 0  9996
2 62706  97.6966 240.7164 0000843 190.3956 169.7251 15.02631608 98705
LEMUR-2-ROUNDTRIPPER    
1 62711U 25009DG  26158.51146826  .00010126  00000+0  74395-3 0  9998
2 62711  97.7236 241.2054 0004389 162.9166 197.2208 15.03628563 76175
LEMUR-2-MYNAMEISJEFF    
1 62712U 25009DH  26158.70959122  .00010009  00000+0  73506-3 0  9994
2 62712  97.7287 241.7782 0002607 190.0193 170.0981 15.03648646 76203
LEMUR-2-LEIA-PHILIP     
1 63246U 25052AN  26158.64692843  .00002437  00000+0  21522-3 0  9999
2 63246  97.6846  50.7579 0002073 252.7944 107.3051 14.97290101 67241
LEMUR-2-LIA-MARTIN      
1 63248U 25052AQ  26158.65491858  .00006417  00000+0  55209-3 0  9996
2 63248  97.6906  51.2261 0002277 174.2204 185.9045 14.97724962 67250
LEMUR-2-DELOITTE-1      
1 63259U 25052BB  26158.69684677  .00004656  00000+0  40395-3 0  9998
2 63259  97.6919  51.5968 0002375 115.6925 244.4543 14.97532629 67274
LEMUR-2-EMERSONROSE     
1 63261U 25052BD  26158.68139199  .00004129  00000+0  34538-3 0  9991
2 63261  97.6905  52.1224 0002485  73.6219 286.5277 14.99018212 67310
LEMUR-2-MARACHE-FRAN    
1 63262U 25052BE  26158.66309041  .00007107  00000+0  57581-3 0  9997
2 63262  97.6945  52.3995 0006230  53.6661 306.5137 15.00001972 67331
LEMUR-2-THEFALCONER     
1 63264U 25052BG  26158.45461391  .00005213  00000+0  45412-3 0  9999
2 63264  97.6876  50.9885 0003592  61.6588 298.4996 14.97324847 67238
LEMUR-2-UNTITLED-SC     
1 63351U 25061A   26158.43570057  .00003834  00000+0  21774-3 0  9996
2 63351  97.5633 133.8693 0017167 301.8670  58.0889 15.13404919 66112
LEMUR-2-ESPERANZA       
1 63352U 25061B   26158.74400852  .00004691  00000+0  26488-3 0  9995
2 63352  97.5640 134.2667 0016812 300.1088  59.8476 15.13501942 66168
LEMUR-2-KREMPEL-BRO2    
1 63353U 25061C   26158.44322273  .00004026  00000+0  22512-3 0  9999
2 63353  97.5687 134.4888 0017542 292.8075  67.1303 15.13933151 66130
LEMUR-2-THERMORAPTOR    
1 63354U 25061D   26158.49188932  .00004804  00000+0  26729-3 0  9995
2 63354  97.5692 134.6110 0017308 291.4891  68.4494 15.14011469 66144
LEMUR-2-NEUROSPICY      
1 63355U 25061E   26158.66255667  .00004613  00000+0  25621-3 0  9993
2 63355  97.5620 134.4144 0015096 295.2778  64.6889 15.14128516 66170
LEMUR-2-TILLINFINITY    
1 63356U 25061F   26158.43725404  .00004194  00000+0  22942-3 0  9997
2 63356  97.5604 134.4742 0016224 282.6696  77.2722 15.14712323 66160
LEMUR-2-KREMPEL-BRO1    
1 63357U 25061G   26158.73982168  .00004917  00000+0  26969-3 0  9999
2 63357  97.5606 134.6938 0016922 282.8124  77.1217 15.14521277 66204
LEMUR-2-LANGER2SPACE    
1 63358U 25061H   26158.43402713  .00004102  00000+0  22771-3 0  9993
2 63358  97.5611 134.2076 0014997 294.2124  65.7540 15.14214309 66147
LEMUR-2-BALTO           
1 63395U 25052BH  26158.64765642  .00006569  00000+0  53283-3 0  9991
2 63395  97.6878  52.3697 0006593  81.7728 278.4243 14.99983991 67332
LEMUR-2-KRISH           
1 64561U 25135AK  26158.57751095  .00005610  00000+0  50372-3 0  9990
2 64561  97.7725 273.5222 0001161 106.0642 254.0707 14.96116165 52486
LEMUR-2-HUBBLE-4        
1 64565U 25135AP  26158.28555383  .00001761  00000+0  17408-3 0  9990
2 64565  97.7689 272.3127 0001720   1.3020 358.8203 14.93171074 52399
LEMUR-2-SEJONG-2        
1 64586U 25135BL  26158.81127858  .00005783  00000+0  51224-3 0  9996
2 64586  97.7684 273.8979 0004607  20.7937 339.3471 14.96628300 52547
LEMUR-2-HUBBLE-5        
1 64840U 25135BT  26158.58069182  .00001832  00000+0  17671-3 0  9997
2 64840  97.7709 273.2221 0005870  25.4481 334.7027 14.94106239 52479
LEMUR-2-KARENDARRELL    
1 64841U 25135BU  26158.57917150  .00008330  00000+0  67418-3 0  9998
2 64841  97.7671 274.8054 0009087 239.5547 120.4778 14.99972950 52574
LEMUR-2-LUCILLE-ROSE    
1 65403U 25135BV  26158.28640745  .00007660  00000+0  61936-3 0  9998
2 65403  97.7771 274.5201 0010640 321.5198  38.5265 15.00027212 47155
LEMUR-2-AFFIE-WAUWIE    
1 66295U 25248C   26158.30799735  .00013749  00000+0  52119-3 0  9998
2 66295  45.3866 168.5000 0008835  20.2835 339.8404 15.26866519 33080
LEMUR-2-DEANANDMAEVE    
1 66678U 25276N   26158.70124000  .00007267  00000+0  34409-3 0  9995
2 66678  97.4207 232.3352 0006570  44.9055 315.2711 15.19616015 28970
LEMUR-2-STAS-GORBUK     
1 66686U 25276W   26158.71359830  .00006312  00000+0  30223-3 0  9996
2 66686  97.4242 232.4031 0006052  45.2008 314.9717 15.19281205 28971
LEMUR-2-TEODOR          
1 66768U 25276DG  26158.70775262  .00006533  00000+0  29810-3 0  9992
2 66768  97.4147 232.6217 0001820 123.6417 236.4992 15.20948044 29008
LEMUR-2-LAILA           
1 66776U 25276DQ  26158.68304264  .00007153  00000+0  32401-3 0  9997
2 66776  97.4171 232.7120 0001565 147.3804 212.7529 15.21168405 29006
LEMUR-2-CELIJO-SB-PK    
1 66781U 25276DW  26158.69688414  .00007019  00000+0  57038-3 0  9990
2 66781  97.5277 229.7849 0008825 155.1599 205.0052 14.99861360 21202
